[{"OBJECT_NAME":"ASTROSAT","OBJECT_ID":"2015-052A","EPOCH":"2026-03-09T22:10:38.920512","MEAN_MOTION":14.82299662,"ECCENTRICITY":0.00076106,"INCLINATION":5.9959,"RA_OF_ASC_NODE":149.7505,"ARG_OF_PERICENTER":54.6851,"MEAN_ANOMALY":305.3988,"EPHEMERIS_TYPE":0,"CLASSIFICATION_TYPE":"U","NORAD_CAT_ID":40930,"ELEMENT_SET_NO":999,"REV_AT_EPOCH":56507,"BSTAR":0.00020001037,"MEAN_MOTION_DOT":2.307e-5,"MEAN_MOTION_DDOT":0},{"OBJECT_NAME":"CZ-6A DEB","OBJECT_ID":"2022-151BA","EPOCH":"2026-03-08T17:30:58.855968","MEAN_MOTION":14.9439792,"ECCENTRICITY":0.00472807,"INCLINATION":98.5596,"RA_OF_ASC_NODE":128.1704,"ARG_OF_PERICENTER":200.9968,"MEAN_ANOMALY":158.931,"EPHEMERIS_TYPE":0,"CLASSIFICATION_TYPE":"U","NORAD_CAT_ID":54307,"ELEMENT_SET_NO":999,"REV_AT_EPOCH":10452,"BSTAR":0.0069448926,"MEAN_MOTION_DOT":0.00077164,"MEAN_MOTION_DDOT":0}]
